GSAT0101 (GALILEO-PFM)  
1 37846U 11060A   26079.27413126 -.00000073  00000+0  00000+0 0  9995
2 37846  57.0223 344.1754 0004060   9.5766 350.4748  1.70475589 89600
GSAT0102 (GALILEO-FM2)  
1 37847U 11060B   26078.32163751 -.00000072  00000+0  00000+0 0  9996
2 37847  57.0234 344.2017 0005250 348.8353 192.1948  1.70475872 89595
GSAT0103 (GALILEO-FM3)  
1 38857U 12055A   26076.38163945  .00000058  00000+0  00000+0 0  9995
2 38857  55.7501 104.0635 0005679 287.1533  72.8692  1.70473419 83440
GSAT0201 (GALILEO 5)    
1 40128U 14050A   26076.25038359  .00000010  00000+0  00000+0 0  9990
2 40128  48.9749 277.1981 1659810 175.8175 185.7717  1.85520031 76618
GSAT0202 (GALILEO 6)    
1 40129U 14050B   26077.04523154  .00000008  00000+0  00000+0 0  9998
2 40129  48.9907 276.2503 1660803 176.5844 184.7132  1.85520759 78798
GSAT0203 (GALILEO 7)    
1 40544U 15017A   26078.46552286 -.00000072  00000+0  00000+0 0  9990
2 40544  56.8157 344.0443 0004826 296.4892  63.5041  1.70475713 67673
GSAT0204 (GALILEO 8)    
1 40545U 15017B   26078.72114747 -.00000073  00000+0  00000+0 0  9997
2 40545  56.8218 344.0553 0004268 291.3833  68.6144  1.70475274 30721
GSAT0206 (GALILEO 10)   
1 40890U 15045B   26077.53671132  .00000021  00000+0  00000+0 0  9997
2 40890  54.9771 224.1049 0003309  50.6387 309.3291  1.70473646 65491
GSAT0209 (GALILEO 12)   
1 41174U 15079A   26077.11828689  .00000060  00000+0  00000+0 0  9998
2 41174  55.7685 103.7584 0005129 323.5033  36.5450  1.70474410 63223
GSAT0208 (GALILEO 11)   
1 41175U 15079B   26078.51167690  .00000059  00000+0  00000+0 0  9990
2 41175  55.7675 103.7171 0004597 324.3681  35.6784  1.70474260 63662
GSAT0211 (GALILEO 14)   
1 41549U 16030A   26076.28930706  .00000024  00000+0  00000+0 0  9993
2 41549  55.1261 224.2196 0003338  22.5180 337.4377  1.70473863 61107
GSAT0210 (GALILEO 13)   
1 41550U 16030B   26078.89290741  .00000021  00000+0  00000+0 0  9999
2 41550  55.1233 224.1462 0001615 205.5824 154.3493  1.70473886 61141
GSAT0207 (GALILEO 15)   
1 41859U 16069A   26079.17128331  .00000056  00000+0  00000+0 0  9998
2 41859  55.4413 103.5478 0005517 310.8202  49.2045  1.70474281 57889
GSAT0212 (GALILEO 16)   
1 41860U 16069B   26078.43824141  .00000059  00000+0  00000+0 0  9993
2 41860  55.4377 103.5632 0004048 335.2679  24.7900  1.70474522 58123
GSAT0213 (GALILEO 17)   
1 41861U 16069C   26077.04592131  .00000059  00000+0  00000+0 0  9991
2 41861  55.4384 103.6095 0005538 294.5801  65.4453  1.70474868 57964
GSAT0214 (GALILEO 18)   
1 41862U 16069D   26078.95172402  .00000057  00000+0  00000+0 0  9996
2 41862  55.4386 103.5495 0004629 299.6017  60.4262  1.70474551 58126
GSAT0215 (GALILEO 19)   
1 43055U 17079A   26078.26854901  .00000021  00000+0  00000+0 0  9990
2 43055  55.1033 223.9782 0000410 326.3438  33.5922  1.70474495 51453
GSAT0216 (GALILEO 20)   
1 43056U 17079B   26077.38659822  .00000022  00000+0  00000+0 0  9999
2 43056  55.1039 224.0026 0001780 307.3268  52.5956  1.70474626 51458
GSAT0217 (GALILEO 21)   
1 43057U 17079C   26078.19394003  .00000021  00000+0  00000+0 0  9996
2 43057  55.1026 223.9782 0001898 345.5080  14.4251  1.70474513 51458
GSAT0218 (GALILEO 22)   
1 43058U 17079D   26079.00057060  .00000021  00000+0  00000+0 0  9997
2 43058  55.1015 223.9538 0002136 293.3882  66.5292  1.70474498 51491
GSAT0221 (GALILEO 25)   
1 43564U 18060A   26078.31751752 -.00000072  00000+0  00000+0 0  9999
2 43564  57.1981 344.2102 0005370 311.5626  48.4339  1.70475444 47637
GSAT0222 (GALILEO 26)   
1 43565U 18060B   26077.36385796 -.00000072  00000+0  00000+0 0  9995
2 43565  57.2015 344.2393 0003600 290.2442  69.7573  1.70475125 47667
GSAT0219 (GALILEO 23)   
1 43566U 18060C   26079.34461141 -.00000073  00000+0  00000+0 0  9996
2 43566  57.2008 344.1873 0005257 316.1614  43.8408  1.70475412 47671
GSAT0220 (GALILEO 24)   
1 43567U 18060D   26077.21923705 -.00000072  00000+0  00000+0 0  9999
2 43567  57.2004 344.2456 0004523 317.6555  42.3495  1.70475263 47620
GSAT0223 (GALILEO 27)   
1 49809U 21116A   26076.19029499 -.00000074  00000+0  00000+0 0  9995
2 49809  57.1906 344.1635 0002080 286.9872 252.3320  1.70475495 26612
GSAT0224 (GALILEO 28)   
1 49810U 21116B   26078.37069199 -.00000072  00000+0  00000+0 0  9998
2 49810  57.1896 344.1029 0000956  17.8219 172.2427  1.70475259 26677
GSAT0225 (GALILEO 29)   
1 59598U 24079A   26079.24176023  .00000055  00000+0  00000+0 0  9995
2 59598  55.0600 103.5641 0002781 265.0538  92.6447  1.70474699 11798
GSAT0227 (GALILEO 30)   
1 59600U 24079C   26078.84245400  .00000056  00000+0  00000+0 0  9991
2 59600  55.0553 103.5738 0000510  16.0429 344.0336  1.70474693 11848
GSAT0226 (GALILEO 31)   
1 61183U 24167B   26078.93161704  .00000021  00000+0  00000+0 0  9994
2 61183  55.2135 223.7670 0001645 145.8785 215.7879  1.70474039  9332
GSAT0234 (GALILEO 34)   
1 67162U 25302C   26078.77665950  .00000055  00000+0  00000+0 0  9990
2 67162  54.2746 104.6769 0002654 229.9157 133.0532  1.70474738  1657
